{
    "links": {
        "self": "http://www.neowsapp.com/rest/v1/neo/3662640?api_key=iIulBulltgU6a56xZRHN4H3l9WmuAYTsLGpBGhQ2"
    },
    "id": "3662640",
    "neo_reference_id": "3662640",
    "name": "(2014 DL23)",
    "designation": "2014 DL23",
    "nasa_jpl_url": "http://ssd.jpl.nasa.gov/sbdb.cgi?sstr=3662640",
    "absolute_magnitude_h": 24.3,
    "estimated_diameter": {
        "kilometers": {
            "estimated_diameter_min": 0.0366906138,
            "estimated_diameter_max": 0.0820427065
        },
        "meters": {
            "estimated_diameter_min": 36.6906137531,
            "estimated_diameter_max": 82.0427064882
        },
        "miles": {
            "estimated_diameter_min": 0.0227984834,
            "estimated_diameter_max": 0.0509789586
        },
        "feet": {
            "estimated_diameter_min": 120.3760332259,
            "estimated_diameter_max": 269.1689931548
        }
    },
    "is_potentially_hazardous_asteroid": false,
    "close_approach_data": [
        {
            "close_approach_date": "1987-02-06",
            "close_approach_date_full": "1987-Feb-06 07:10",
            "epoch_date_close_approach": 539593800000,
            "relative_velocity": {
                "kilometers_per_second": "14.0937595621",
                "kilometers_per_hour": "50737.534423394",
                "miles_per_hour": "31526.3307643584"
            },
            "miss_distance": {
                "astronomical": "0.4142968102",
                "lunar": "161.1614591678",
                "kilometers": "61977920.353714274",
                "miles": "38511293.9153700212"
            },
            "orbiting_body": "Earth"
        },
        {
            "close_approach_date": "2012-03-20",
            "close_approach_date_full": "2012-Mar-20 23:54",
            "epoch_date_close_approach": 1332287640000,
            "relative_velocity": {
                "kilometers_per_second": "16.6685747237",
                "kilometers_per_hour": "60006.869005176",
                "miles_per_hour": "37285.9347993551"
            },
            "miss_distance": {
                "astronomical": "0.4477548168",
                "lunar": "174.1766237352",
                "kilometers": "66983166.875520216",
                "miles": "41621409.8860263408"
            },
            "orbiting_body": "Earth"
        },
        {
            "close_approach_date": "2014-02-27",
            "close_approach_date_full": "2014-Feb-27 04:26",
            "epoch_date_close_approach": 1393475160000,
            "relative_velocity": {
                "kilometers_per_second": "9.0333472701",
                "kilometers_per_hour": "32520.0501722046",
                "miles_per_hour": "20206.6945083901"
            },
            "miss_distance": {
                "astronomical": "0.0733683118",
                "lunar": "28.5402732902",
                "kilometers": "10975743.170775866",
                "miles": "6820010.5582283108"
            },
            "orbiting_body": "Earth"
        },
        {
            "close_approach_date": "2016-02-05",
            "close_approach_date_full": "2016-Feb-05 18:19",
            "epoch_date_close_approach": 1454696340000,
            "relative_velocity": {
                "kilometers_per_second": "14.5453821352",
                "kilometers_per_hour": "52363.3756866671",
                "miles_per_hour": "32536.565298196"
            },
            "miss_distance": {
                "astronomical": "0.4318577976",
                "lunar": "167.9926832664",
                "kilometers": "64605006.663851112",
                "miles": "40143689.6532928656"
            },
            "orbiting_body": "Earth"
        },
        {
            "close_approach_date": "2041-03-21",
            "close_approach_date_full": "2041-Mar-21 17:29",
            "epoch_date_close_approach": 2247499740000,
            "relative_velocity": {
                "kilometers_per_second": "16.7316470586",
                "kilometers_per_hour": "60233.9294109488",
                "miles_per_hour": "37427.0213053754"
            },
            "miss_distance": {
                "astronomical": "0.4507550253",
                "lunar": "175.3437048417",
                "kilometers": "67431991.676676111",
                "miles": "41900296.6853118918"
            },
            "orbiting_body": "Earth"
        }
    ],
    "orbital_data": {
        "orbit_id": "14",
        "orbit_determination_date": "2017-04-06 08:42:17",
        "first_observation_date": "2014-02-27",
        "last_observation_date": "2014-03-26",
        "data_arc_in_days": 27,
        "observations_used": 50,
        "orbit_uncertainty": "7",
        "minimum_orbit_intersection": ".0731101",
        "jupiter_tisserand_invariant": "4.351",
        "epoch_osculation": "2459000.5",
        "eccentricity": ".3177776044098022",
        "semi_major_axis": "1.552027964097912",
        "inclination": "15.33885185431071",
        "ascending_node_longitude": "159.6476746326307",
        "orbital_period": "706.2325658226931",
        "perihelion_distance": "1.058828235689855",
        "perihelion_argument": "347.8409533778078",
        "aphelion_distance": "2.04522769250597",
        "perihelion_time": "2458824.322027445902",
        "mean_anomaly": "89.80621000617867",
        "mean_motion": ".5097470966672778",
        "equinox": "J2000",
        "orbit_class": {
            "orbit_class_type": "AMO",
            "orbit_class_description": "Near-Earth asteroid orbits similar to that of 1221 Amor",
            "orbit_class_range": "1.017 AU < q (perihelion) < 1.3 AU"
        }
    },
    "is_sentry_object": false
}